NORAD_CAT_ID,OBJECT_NAME,OBJECT_TYPE,EPOCH,MEAN_MOTION,ECCENTRICITY,INCLINATION,RA_OF_ASC_NODE,ARG_OF_PERICENTER,MEAN_ANOMALY,BSTAR,MEAN_MOTION_DOT,MEAN_MOTION_DDOT,TLE_LINE0,TLE_LINE1,TLE_LINE2,SEMIMAJOR_AXIS,PERIOD,APOGEE,PERIGEE,DECAYED
53143.0,STARLINK-4102,PAYLOAD,2024-02-15 03:51:27,15.08832043,0.0001851,53.2183,316.8445,97.304,262.8163,0.00019739,2.854e-05,0.0,0 STARLINK-4102,1 53143U 22083M   24046.16074039  .00002854  00000-0  19739-3 0  9998,2 53143  53.2183 316.8445 0001851  97.3040 262.8163 15.08832043 88096,6917.905,95.438,541.05,538.489,0.0
53143.0,STARLINK-4102,PAYLOAD,2024-02-15 22:56:06,15.08842815,0.0001633,53.218,313.2789,89.3361,270.7819,-0.00022332,-3.841e-05,0.0,0 STARLINK-4102,1 53143U 22083M   24046.95562682 -.00003841  00000-0 -22332-3 0  9993,2 53143  53.2180 313.2789 0001633  89.3361 270.7819 15.08842815 87587,6917.872,95.437,540.866,538.607,0.0
53143.0,STARLINK-4102,PAYLOAD,2024-02-16 10:03:46,15.08855867,0.0001527,53.217,311.1958,92.7798,267.3369,-0.00019956,-3.464e-05,0.0,0 STARLINK-4102,1 53143U 22083M   24047.41929370 -.00003464  00000-0 -19956-3 0  9995,2 53143  53.2170 311.1958 0001527  92.7798 267.3369 15.08855867 88286,6917.832,95.437,540.753,538.641,0.0
53143.0,STARLINK-4102,PAYLOAD,2024-02-16 21:11:29,15.08833796,0.0001628,53.2173,309.1141,103.011,257.1064,0.00012291,1.668e-05,0.0,0 STARLINK-4102,1 53143U 22083M   24047.88298139  .00001668  00000-0  12291-3 0  9995,2 53143  53.2173 309.1141 0001628 103.0110 257.1064 15.08833796 87720,6917.899,95.438,540.891,538.638,0.0
53143.0,STARLINK-4102,PAYLOAD,2024-02-17 00:22:15,15.08842786,0.0001545,53.217,308.5198,104.9928,255.1235,0.00012266,1.665e-05,0.0,0 STARLINK-4102,1 53143U 22083M   24048.01545706  .00001665  00000-0  12266-3 0  9995,2 53143  53.2170 308.5198 0001545 104.9928 255.1235 15.08842786 88376,6917.872,95.437,540.806,538.668,0.0
53143.0,STARLINK-4102,PAYLOAD,2024-02-17 09:54:34,15.08846783,0.0001567,53.2174,306.7358,103.0737,257.043,0.0001034,1.358e-05,0.0,0 STARLINK-4102,1 53143U 22083M   24048.41289406  .00001358  00000-0  10340-3 0  9991,2 53143  53.2174 306.7358 0001567 103.0737 257.0430 15.08846783 87806,6917.86,95.437,540.809,538.641,0.0
53143.0,STARLINK-4102,PAYLOAD,2024-02-17 22:37:40,15.08834909,0.0001699,53.2185,304.363,114.3908,245.7262,7.8419e-05,9.6e-06,0.0,0 STARLINK-4102,1 53143U 22083M   24048.94282671  .00000960  00000-0  78419-4 0  9996,2 53143  53.2185 304.3630 0001699 114.3908 245.7262 15.08834909 87888,6917.896,95.438,540.936,538.586,0.0
53143.0,STARLINK-4102,PAYLOAD,2024-02-18 09:45:21,15.088404,0.0001436,53.2171,302.2752,92.2268,267.8888,8.5159e-05,1.068e-05,0.0,0 STARLINK-4102,1 53143U 22083M   24049.40650404  .00001068  00000-0  85159-4 0  9990,2 53143  53.2171 302.2752 0001436  92.2268 267.8888 15.08840400 87957,6917.879,95.438,540.738,538.751,0.0
53143.0,STARLINK-4102,PAYLOAD,2024-02-18 22:28:27,15.08845213,0.0001558,53.2171,299.8974,95.3855,264.7315,1.1534e-06,-2.7e-06,0.0,0 STARLINK-4102,1 53143U 22083M   24049.93642426 -.00000270  00000-0  11534-5 0  9995,2 53143  53.2171 299.8974 0001558  95.3855 264.7315 15.08845213 88033,6917.864,95.437,540.807,538.652,0.0
53143.0,STARLINK-4102,PAYLOAD,2024-02-19 01:39:12,15.08850523,0.000167,53.2178,299.3024,94.5638,265.5545,5.7035e-05,6.2e-06,0.0,0 STARLINK-4102,1 53143U 22083M   24050.06889942  .00000620  00000-0  57035-4 0  9990,2 53143  53.2178 299.3024 0001670  94.5638 265.5545 15.08850523 88681,6917.848,95.437,540.869,538.558,0.0
53143.0,STARLINK-4102,PAYLOAD,2024-02-19 09:36:08,15.08845914,0.0001718,53.218,297.8133,85.0625,275.0563,2.48e-05,1.07e-06,0.0,0 STARLINK-4102,1 53143U 22083M   24050.40010216  .00000107  00000-0  24800-4 0  9992,2 53143  53.2180 297.8133 0001718  85.0625 275.0563 15.08845914 88732,6917.862,95.437,540.916,538.539,0.0
53143.0,STARLINK-4102,PAYLOAD,2024-02-19 22:19:14,15.08831853,0.0001497,53.2151,295.4386,83.1444,276.9719,8.1794e-05,1.014e-05,0.0,0 STARLINK-4102,1 53143U 22083M   24050.93003120  .00001014  00000-0  81794-4 0  9999,2 53143  53.2151 295.4386 0001497  83.1444 276.9719 15.08831853 88185,6917.905,95.438,540.806,538.735,0.0
53143.0,STARLINK-4102,PAYLOAD,2024-02-20 01:30:00,15.08840089,0.0001522,53.2165,294.8423,85.9296,274.187,7.6497e-05,9.3e-06,0.0,0 STARLINK-4102,1 53143U 22083M   24051.06250567  .00000930  00000-0  76497-4 0  9993,2 53143  53.2165 294.8423 0001522  85.9296 274.1870 15.08840089 88830,6917.88,95.438,540.798,538.692,0.0
53143.0,STARLINK-4102,PAYLOAD,2024-02-20 22:10:00,15.08852584,0.0001491,53.216,290.9761,91.8429,268.2734,7.9177e-05,9.73e-06,0.0,0 STARLINK-4102,1 53143U 22083M   24051.92361656  .00000973  00000-0  79177-4 0  9995,2 53143  53.2160 290.9761 0001491  91.8429 268.2734 15.08852584 88337,6917.842,95.437,540.738,538.675,0.0
53143.0,STARLINK-4102,PAYLOAD,2024-02-21 09:17:42,15.08851232,0.0001519,53.2158,288.8947,88.2301,271.8865,6.216e-05,7.02e-06,0.0,0 STARLINK-4102,1 53143U 22083M   24052.38729547  .00000702  00000-0  62160-4 0  9997,2 53143  53.2158 288.8947 0001519  88.2301 271.8865 15.08851232 88408,6917.846,95.437,540.762,538.66,0.0
53143.0,STARLINK-4102,PAYLOAD,2024-02-21 20:25:25,15.08830295,0.0001165,53.2159,286.813,87.1776,272.935,5.1321e-05,5.29e-06,0.0,0 STARLINK-4102,1 53143U 22083M   24052.85098912  .00000529  00000-0  51321-4 0  9998,2 53143  53.2159 286.8130 0001165  87.1776 272.9350 15.08830295 89107,6917.91,95.438,540.581,538.969,0.0
53143.0,STARLINK-4102,PAYLOAD,2024-02-21 22:00:48,15.08830958,0.0001175,53.2162,286.5155,87.6165,272.4961,6.1898e-05,6.97e-06,0.0,0 STARLINK-4102,1 53143U 22083M   24052.91722911  .00000697  00000-0  61898-4 0  9994,2 53143  53.2162 286.5155 0001175  87.6165 272.4961 15.08830958 88482,6917.908,95.438,540.586,538.96,0.0
53143.0,STARLINK-4102,PAYLOAD,2024-02-22 01:11:34,15.0884144,0.0001455,53.2167,285.9184,97.0094,263.1064,5.891e-05,6.5e-06,0.0,0 STARLINK-4102,1 53143U 22083M   24053.04970249  .00000650  00000-0  58910-4 0  9998,2 53143  53.2167 285.9184 0001455  97.0094 263.1064 15.08841440 89131,6917.876,95.437,540.748,538.734,0.0
53143.0,STARLINK-4102,PAYLOAD,2024-02-22 21:51:35,15.08838924,0.0001456,53.2159,282.0511,97.024,263.0918,2.8571e-05,1.67e-06,0.0,0 STARLINK-4102,1 53143U 22083M   24053.91082465  .00000167  00000-0  28571-4 0  9991,2 53143  53.2159 282.0511 0001456  97.0240 263.0918 15.08838924 88632,6917.884,95.438,540.756,538.741,0.0
53143.0,STARLINK-4102,PAYLOAD,2024-02-23 20:06:59,15.08836116,0.0001087,53.2161,277.8875,102.21,257.9014,0.00014078,1.953e-05,0.0,0 STARLINK-4102,1 53143U 22083M   24054.83818570  .00001953  00000-0  14078-3 0  9997,2 53143  53.2161 277.8875 0001087 102.2100 257.9014 15.08836116 89400,6917.892,95.438,540.509,539.005,0.0
53143.0,STARLINK-4102,PAYLOAD,2024-02-23 21:42:22,15.08839734,0.0001179,53.2157,277.5926,92.1914,267.9213,0.00010521,1.387e-05,0.0,0 STARLINK-4102,1 53143U 22083M   24054.90442511  .00001387  00000-0  10521-3 0  9993,2 53143  53.2157 277.5926 0001179  92.1914 267.9213 15.08839734 88782,6917.881,95.438,540.562,538.931,0.0
53143.0,STARLINK-4102,PAYLOAD,2024-02-24 07:14:41,15.0884197,0.0001171,53.2155,275.8081,91.3787,268.7339,0.00012514,1.704e-05,0.0,0 STARLINK-4102,1 53143U 22083M   24055.30186492  .00001704  00000-0  12514-3 0  9998,2 53143  53.2155 275.8081 0001171  91.3787 268.7339 15.08841970 88844,6917.874,95.437,540.549,538.929,0.0
53143.0,STARLINK-4102,PAYLOAD,2024-02-24 21:33:09,15.08838044,0.0001252,53.2157,273.132,89.5257,270.5878,9.8063e-05,1.273e-05,0.0,0 STARLINK-4102,1 53143U 22083M   24055.89803013  .00001273  00000-0  98063-4 0  9992,2 53143  53.2157 273.1320 0001252  89.5257 270.5878 15.08838044 88931,6917.886,95.438,540.617,538.885,0.0
53143.0,STARLINK-4102,PAYLOAD,2024-02-25 00:43:55,15.08839917,0.0001274,53.2156,272.537,89.0709,271.0429,0.00010886,1.445e-05,0.0,0 STARLINK-4102,1 53143U 22083M   24056.03050875  .00001445  00000-0  10886-3 0  9996,2 53143  53.2156 272.5370 0001274  89.0709 271.0429 15.08839917 89589,6917.881,95.438,540.627,538.864,0.0
53143.0,STARLINK-4102,PAYLOAD,2024-02-25 15:02:23,15.08843234,0.0001332,53.216,269.8611,90.7283,269.3861,0.00011553,1.551e-05,0.0,0 STARLINK-4102,1 53143U 22083M   24056.62666663  .00001551  00000-0  11553-3 0  9999,2 53143  53.2160 269.8611 0001332  90.7283 269.3861 15.08843234 89040,6917.871,95.437,540.657,538.814,0.0
53143.0,STARLINK-4102,PAYLOAD,2024-02-25 21:23:54,15.08883239,0.0001142,53.2156,268.6722,98.8613,261.2508,-0.00039897,-6.639e-05,0.0,0 STARLINK-4102,1 53143U 22083M   24056.89160791 -.00006639  00000-0 -39897-3 0  9994,2 53143  53.2156 268.6722 0001142  98.8613 261.2508 15.08883239 89082,6917.748,95.435,540.403,538.823,0.0
53143.0,STARLINK-4102,PAYLOAD,2024-02-25 22:59:19,15.08849897,0.0001345,53.2156,268.3749,93.8276,266.287,0.0001688,2.4e-05,0.0,0 STARLINK-4102,1 53143U 22083M   24056.95786092  .00002400  00000-0  16880-3 0  9996,2 53143  53.2156 268.3749 0001345  93.8276 266.2870 15.08849897 89723,6917.85,95.437,540.646,538.785,0.0
53143.0,STARLINK-4102,PAYLOAD,2024-02-26 19:39:21,15.08835505,0.0001463,53.2152,264.5097,98.8585,261.2572,2.7932e-05,1.57e-06,0.0,0 STARLINK-4102,1 53143U 22083M   24057.81899328  .00000157  00000-0  27932-4 0  9997,2 53143  53.2152 264.5097 0001463  98.8585 261.2572 15.08835505 89851,6917.894,95.438,540.771,538.747,0.0
53143.0,STARLINK-4102,PAYLOAD,2024-02-26 21:14:44,15.08838016,0.0001452,53.2163,264.2113,94.3831,265.7327,4.1392e-05,3.71e-06,0.0,0 STARLINK-4102,1 53143U 22083M   24057.88523155  .00000371  00000-0  41392-4 0  9990,2 53143  53.2163 264.2113 0001452  94.3831 265.7327 15.08838016 89231,6917.886,95.438,540.756,538.747,0.0
53143.0,STARLINK-4102,PAYLOAD,2024-02-27 13:08:35,15.08839374,0.0001342,53.2159,261.2385,93.4303,266.6842,6.0801e-05,6.8e-06,0.0,0 STARLINK-4102,1 53143U 22083M   24058.54763048  .00000680  00000-0  60801-4 0  9990,2 53143  53.2159 261.2385 0001342  93.4303 266.6842 15.08839374 89337,6917.882,95.438,540.676,538.819,0.0
